[
    {
        "Altitude(m)": 624792.8062368529,
        "Argument of Periapsis(deg)": 0.0,
        "Eccentricity": 0.0,
        "Inclination(deg)": 60.0,
        "Latitude(deg)": -59.14719114795714,
        "Longitude(deg)": -70.97356365228443,
        "Mean Anomaly(deg)": -98.18179999999998,
        "RAAN(deg)": 135.0,
        "Satellite Name": "Test1 610",
        "Satellite Number": 610,
        "Semi-Major Axis(m)": 6980739.136638005,
        "Time(s)": 0
    },
    {
        "Altitude(m)": 624842.1980422954,
        "Argument of Periapsis(deg)": 0.00010418945913296404,
        "Eccentricity": 0.0,
        "Inclination(deg)": 60.0,
        "Latitude(deg)": -59.28927431805324,
        "Longitude(deg)": -69.84405597555913,
        "Mean Anomaly(deg)": -97.56169385453813,
        "RAAN(deg)": 134.99957995086024,
        "Satellite Name": "Test1 610",
        "Satellite Number": 610,
        "Semi-Major Axis(m)": 6980739.136638005,
        "Time(s)": 10
    }
]